IRIDIUM 39              
1 25042U 97069D   25342.18244909  .00001515  00000+0  38938-3 0  9992
2 25042  86.3911 136.5861 0019772  85.8903 274.4561 14.49494879474162
IRIDIUM 38              
1 25043U 97069E   25342.24701818  .00000892  00000+0  28688-3 0  9995
2 25043  86.3970 159.9970 0000743 160.8401 199.2825 14.38307298470971
IRIDIUM 42              
1 25077U 97077A   25342.25863092  .00000783  00000+0  26005-3 0  9995
2 25077  86.3978 166.3734 0001226  90.1588 269.9750 14.36525988466180
IRIDIUM 44              
1 25078U 97077B   25342.02081123  .00000687  00000+0  21010-3 0  9992
2 25078  86.3964 147.9473 0002864 131.3507 228.7939 14.40425808468728
IRIDIUM 45              
1 25104U 97082A   25342.23112329  .00035084  00000+0  99911-3 0  9998
2 25104  86.3542 322.8995 0101360  37.7922 323.0387 15.30859501478586
IRIDIUM 24              
1 25105U 97082B   25342.32333805  .00000825  00000+0  24375-3 0  9990
2 25105  86.3912   6.4266 0010045 212.9984 147.0590 14.42321335468319
IRIDIUM 51              
1 25262U 98018A   25342.22333880  .00099134  00000+0  11059-2 0  9991
2 25262  86.3736 328.5618 0049154 294.4768  65.1375 15.60945535473945
IRIDIUM 57              
1 25273U 98019B   25342.31263308  .00000752  00000+0  25209-3 0  9992
2 25273  86.3959  72.2465 0002008  97.4791 262.6634 14.36046941449772
